NORAD_CAT_ID,OBJECT_NAME,OBJECT_TYPE,EPOCH,MEAN_MOTION,ECCENTRICITY,INCLINATION,RA_OF_ASC_NODE,ARG_OF_PERICENTER,MEAN_ANOMALY,BSTAR,MEAN_MOTION_DOT,MEAN_MOTION_DDOT,TLE_LINE0,TLE_LINE1,TLE_LINE2,SEMIMAJOR_AXIS,PERIOD,APOGEE,PERIGEE,DECAYED
53781.0,STARLINK-4462,PAYLOAD,2024-06-03 14:53:41,15.08834831,0.0001326,53.2154,285.4581,84.266,275.8483,0.00014172,1.968e-05,0.0,0 STARLINK-4462,1 53781U 22111J   24155.62061853  .00001968  00000-0  14172-3 0  9991,2 53781  53.2154 285.4581 0001326  84.2660 275.8483 15.08834831 96460,6917.896,95.438,540.679,538.844,0.0
53781.0,STARLINK-4462,PAYLOAD,2024-06-03 18:04:27,15.08833202,8.96e-05,53.2167,284.8627,84.1201,275.9893,4.9103e-05,4.94e-06,0.0,0 STARLINK-4462,1 53781U 22111J   24155.75309985  .00000494  00000-0  49103-4 0  9992,2 53781  53.2167 284.8627 0000896  84.1201 275.9893 15.08833202 95678,6917.901,95.438,540.386,539.146,0.0
53781.0,STARLINK-4462,PAYLOAD,2024-06-04 02:01:24,15.08815294,0.000153,53.2192,283.375,82.6022,277.5144,-0.0001777,-3.113e-05,0.0,0 STARLINK-4462,1 53781U 22111J   24156.08431443 -.00003113  00000-0 -17770-3 0  9991,2 53781  53.2192 283.3750 0001530  82.6022 277.5144 15.08815294 95721,6917.956,95.439,540.879,538.762,0.0
53781.0,STARLINK-4462,PAYLOAD,2024-06-04 08:22:58,15.08812843,0.0002426,53.2133,282.1863,83.1198,277.007,-0.00015059,-2.683e-05,0.0,0 STARLINK-4462,1 53781U 22111J   24156.34928344 -.00002683  00000-0 -15059-3 0  9990,2 53781  53.2133 282.1863 0002426  83.1198 277.0070 15.08812843 96577,6917.963,95.439,541.507,538.15,0.0
53781.0,STARLINK-4462,PAYLOAD,2024-06-04 21:06:10,15.08712843,0.0001271,53.2213,279.8064,114.5233,245.5891,-0.0012782,-0.00020502,0.0,0 STARLINK-4462,1 53781U 22111J   24156.87928298 -.00020502  00000-0 -12782-2 0  9995,2 53781  53.2213 279.8064 0001271 114.5233 245.5891 15.08712843 95847,6918.269,95.446,541.013,539.255,0.0
53781.0,STARLINK-4462,PAYLOAD,2024-06-05 11:24:40,15.08748408,0.0001311,53.2151,277.131,81.0917,279.0223,-0.00033595,-5.617e-05,0.0,0 STARLINK-4462,1 53781U 22111J   24157.47546608 -.00005617  00000-0 -33595-3 0  9999,2 53781  53.2151 277.1310 0001311  81.0917 279.0223 15.08748408 95932,6918.16,95.443,540.932,539.118,0.0
53781.0,STARLINK-4462,PAYLOAD,2024-06-05 17:46:14,15.08743041,0.0001756,53.2166,275.9417,92.3745,267.7448,-8.0045e-05,-1.558e-05,0.0,0 STARLINK-4462,1 53781U 22111J   24157.74044769 -.00001558  00000-0 -80045-4 0  9993,2 53781  53.2166 275.9417 0001756  92.3745 267.7448 15.08743041 96784,6918.177,95.444,541.257,538.827,0.0
53781.0,STARLINK-4462,PAYLOAD,2024-06-06 11:15:32,15.08762291,0.000158,53.2178,272.6721,88.5672,271.5501,0.00051733,7.938e-05,0.0,0 STARLINK-4462,1 53781U 22111J   24158.46912131  .00007938  00000-0  51733-3 0  9997,2 53781  53.2178 272.6721 0001580  88.5672 271.5501 15.08762291 96084,6918.118,95.442,541.076,538.89,0.0
53781.0,STARLINK-4462,PAYLOAD,2024-06-06 14:26:18,15.08781586,0.0001543,53.2173,272.078,78.6623,281.4542,0.0007494,0.0001164,0.0,0 STARLINK-4462,1 53781U 22111J   24158.60160046  .00011640  00000-0  74940-3 0  9993,2 53781  53.2173 272.0780 0001543  78.6623 281.4542 15.08781586 96918,6918.059,95.441,540.991,538.856,0.0
53781.0,STARLINK-4462,PAYLOAD,2024-06-06 17:37:05,15.08775483,0.0001557,53.2166,271.483,73.3362,286.7801,0.0010621,0.00016626,0.0,0 STARLINK-4462,1 53781U 22111J   24158.73409138  .00016626  00000-0  10621-2 0  9999,2 53781  53.2166 271.4830 0001557  73.3362 286.7801 15.08775483 96124,6918.078,95.442,541.02,538.865,0.0
53781.0,STARLINK-4462,PAYLOAD,2024-06-07 07:55:33,15.08812235,0.0001555,53.2187,268.8099,80.6827,279.4341,0.00094754,0.00014813,0.0,0 STARLINK-4462,1 53781U 22111J   24159.33025120  .00014813  00000-0  94754-3 0  9997,2 53781  53.2187 268.8099 0001555  80.6827 279.4341 15.08812235 96214,6917.965,95.439,540.906,538.755,0.0
53781.0,STARLINK-4462,PAYLOAD,2024-06-07 23:49:22,15.08871959,0.0001531,53.2161,265.8332,78.7079,281.4085,0.00093238,0.00014595,0.0,0 STARLINK-4462,1 53781U 22111J   24159.99261981  .00014595  00000-0  93238-3 0  9999,2 53781  53.2161 265.8332 0001531  78.7079 281.4085 15.08871959 96311,6917.783,95.436,540.707,538.589,0.0
53781.0,STARLINK-4462,PAYLOAD,2024-06-08 14:07:47,15.08918605,0.0001648,53.2168,263.1616,86.3579,273.7601,0.0010249,0.00016096,0.0,0 STARLINK-4462,1 53781U 22111J   24160.58873872  .00016096  00000-0  10249-2 0  9992,2 53781  53.2168 263.1616 0001648  86.3579 273.7601 15.08918605 97211,6917.64,95.433,540.645,538.365,0.0
53781.0,STARLINK-4462,PAYLOAD,2024-06-08 17:18:32,15.08941183,0.0001605,53.2163,262.5622,73.4777,286.6392,0.0012115,0.00019099,0.0,0 STARLINK-4462,1 53781U 22111J   24160.72120600  .00019099  00000-0  12115-2 0  9992,2 53781  53.2163 262.5622 0001605  73.4777 286.6392 15.08941183 96425,6917.571,95.431,540.546,538.326,0.0
53781.0,STARLINK-4462,PAYLOAD,2024-06-09 12:23:04,15.08958333,0.0001837,53.2147,258.9935,78.1019,282.0179,0.00070693,0.00011017,0.0,0 STARLINK-4462,1 53781U 22111J   24161.51602065  .00011017  00000-0  70693-3 0  9998,2 53781  53.2147 258.9935 0001837  78.1019 282.0179 15.08958333 97352,6917.519,95.43,540.654,538.113,0.0
53781.0,STARLINK-4462,PAYLOAD,2024-06-09 15:33:49,15.08970317,0.0001882,53.214,258.3992,79.5188,280.6016,0.00068972,0.00010745,0.0,0 STARLINK-4462,1 53781U 22111J   24161.64848654  .00010745  00000-0  68972-3 0  9992,2 53781  53.2140 258.3992 0001882  79.5188 280.6016 15.08970317 97376,6917.482,95.429,540.649,538.045,0.0
53781.0,STARLINK-4462,PAYLOAD,2024-06-09 23:30:43,15.08939315,0.0001834,53.216,256.9113,83.9751,276.145,-0.00027858,-4.731e-05,0.0,0 STARLINK-4462,1 53781U 22111J   24161.97967285 -.00004731  00000-0 -27858-3 0  9998,2 53781  53.2160 256.9113 0001834  83.9751 276.1450 15.08939315 96610,6917.577,95.431,540.711,538.173,0.0
53781.0,STARLINK-4462,PAYLOAD,2024-06-10 12:13:47,15.08897471,0.0001098,53.2139,254.5329,98.1402,261.9715,-0.00096229,-0.00015594,0.0,0 STARLINK-4462,1 53781U 22111J   24162.50957801 -.00015594  00000-0 -96229-3 0  9998,2 53781  53.2139 254.5329 0001098  98.1402 261.9715 15.08897471 96692,6917.705,95.434,540.329,538.81,0.0
53781.0,STARLINK-4462,PAYLOAD,2024-06-10 13:49:10,15.08894138,0.0001123,53.2151,254.2358,95.1358,264.9762,-0.00099573,-0.00016123,0.0,0 STARLINK-4462,1 53781U 22111J   24162.57581679 -.00016123  00000-0 -99573-3 0  9995,2 53781  53.2151 254.2358 0001123  95.1358 264.9762 15.08894138 97515,6917.715,95.434,540.357,538.803,0.0
53781.0,STARLINK-4462,PAYLOAD,2024-06-10 18:35:20,15.08892691,0.0001111,53.2153,253.3435,97.3949,262.7169,-0.00077485,-0.00012616,0.0,0 STARLINK-4462,1 53781U 22111J   24162.77453722 -.00012616  00000-0 -77485-3 0  9995,2 53781  53.2153 253.3435 0001111  97.3949 262.7169 15.08892691 97542,6917.719,95.434,540.353,538.816,0.0
53781.0,STARLINK-4462,PAYLOAD,2024-06-11 05:43:02,15.08865736,0.0001255,53.2159,251.2618,96.9325,263.1809,-0.00084333,-0.00013694,0.0,0 STARLINK-4462,1 53781U 22111J   24163.23821943 -.00013694  00000-0 -84333-3 0  9998,2 53781  53.2159 251.2618 0001255  96.9325 263.1809 15.08865736 96804,6917.802,95.436,540.535,538.799,0.0
53781.0,STARLINK-4462,PAYLOAD,2024-06-11 12:04:33,15.088637,0.0001381,53.2145,250.0732,97.0961,263.0188,-0.00055218,-9.071e-05,0.0,0 STARLINK-4462,1 53781U 22111J   24163.50317125 -.00009071  00000-0 -55218-3 0  9994,2 53781  53.2145 250.0732 0001381  97.0961 263.0188 15.08863700 97653,6917.808,95.436,540.628,538.718,0.0
53781.0,STARLINK-4462,PAYLOAD,2024-06-11 23:12:16,15.08849742,0.0001151,53.2132,247.9919,101.0358,259.0764,-0.00026215,-4.459e-05,0.0,0 STARLINK-4462,1 53781U 22111J   24163.96685492 -.00004459  00000-0 -26215-3 0  9999,2 53781  53.2132 247.9919 0001151 101.0358 259.0764 15.08849742 97725,6917.851,95.437,540.512,538.919,0.0
53781.0,STARLINK-4462,PAYLOAD,2024-06-12 11:55:22,15.08837344,0.0001228,53.2169,245.612,99.2836,260.8295,-3.7226e-05,-8.8e-06,0.0,0 STARLINK-4462,1 53781U 22111J   24164.49678300 -.00000880  00000-0 -37226-4 0  9997,2 53781  53.2169 245.6120 0001228  99.2836 260.8295 15.08837344 96990,6917.889,95.438,540.603,538.904,0.0
53781.0,STARLINK-4462,PAYLOAD,2024-06-13 11:46:08,15.08845633,0.0001341,53.2166,241.1537,87.2487,272.8659,0.00021834,3.189e-05,0.0,0 STARLINK-4462,1 53781U 22111J   24165.49038121  .00003189  00000-0  21834-3 0  9999,2 53781  53.2166 241.1537 0001341  87.2487 272.8659 15.08845633 97959,6917.863,95.437,540.656,538.8,0.0
53781.0,STARLINK-4462,PAYLOAD,2024-06-14 11:36:56,15.08839422,0.0001305,53.217,236.6915,86.0492,274.065,5.1228e-05,5.27e-06,0.0,0 STARLINK-4462,1 53781U 22111J   24166.48398451  .00000527  00000-0  51228-4 0  9998,2 53781  53.2170 236.6915 0001305  86.0492 274.0650 15.08839422 98108,6917.882,95.438,540.65,538.844,0.0
53781.0,STARLINK-4462,PAYLOAD,2024-06-14 14:47:42,15.08839599,0.0001275,53.2178,236.0968,87.3449,272.7689,7.7414e-05,9.44e-06,0.0,0 STARLINK-4462,1 53781U 22111J   24166.61646542  .00000944  00000-0  77414-4 0  9998,2 53781  53.2178 236.0968 0001275  87.3449 272.7689 15.08839599 98124,6917.882,95.438,540.629,538.865,0.0
53781.0,STARLINK-4462,PAYLOAD,2024-06-15 11:27:42,15.08847948,0.0001234,53.2169,232.2317,86.7923,273.3211,8.8626e-05,1.123e-05,0.0,0 STARLINK-4462,1 53781U 22111J   24167.47757840  .00001123  00000-0  88626-4 0  9994,2 53781  53.2169 232.2317 0001234  86.7923 273.3211 15.08847948 98254,6917.856,95.437,540.575,538.867,0.0
53781.0,STARLINK-4462,PAYLOAD,2024-06-15 21:00:00,15.08883085,0.0001056,53.2161,230.4467,61.7156,298.3943,-0.00047746,-7.887e-05,0.0,0 STARLINK-4462,1 53781U 22111J   24167.87500264 -.00007887  00000-0 -47746-3 0  9996,2 53781  53.2161 230.4467 0001056  61.7156 298.3943 15.08883085 98313,6917.749,95.435,540.344,538.883,0.0
53781.0,STARLINK-4462,PAYLOAD,2024-06-16 11:18:30,15.08834368,0.0001502,53.2176,227.7751,102.9339,257.182,4.0547e-05,3.57e-06,0.0,0 STARLINK-4462,1 53781U 22111J   24168.47118849  .00000357  00000-0  40547-4 0  9993,2 53781  53.2176 227.7751 0001502 102.9339 257.1820 15.08834368 98408,6917.898,95.438,540.802,538.724,0.0
